IRIDIUM 119             
1 42959U 17061E   26015.75225396 -.00000002  00000+0 -76912-5 0  9990
2 42959  86.3948  88.9989 0002101 102.4142 257.7289 14.34217468432962
IRIDIUM 107             
1 42960U 17061F   26015.84105110  .00000031  00000+0  41524-5 0  9994
2 42960  86.3954  88.9825 0002547  94.4914 265.6572 14.34217633432980
IRIDIUM 132             
1 42961U 17061G   26015.70785598  .00000003  00000+0 -58402-5 0  9997
2 42961  86.3954  89.0186 0002143  96.2098 263.9341 14.34217551432960
IRIDIUM 136             
1 42962U 17061H   26015.73956926  .00000111  00000+0  32633-4 0  9992
2 42962  86.3952  89.0111 0002222  98.8107 261.3341 14.34216895432988
IRIDIUM 139             
1 42963U 17061J   26015.74591163  .00000087  00000+0  24138-4 0  9995
2 42963  86.3955  89.0682 0002303  94.1849 265.9610 14.34217845432993
IRIDIUM 125             
1 42964U 17061K   26015.73322689  .00000067  00000+0  16975-4 0  9998
2 42964  86.3956  89.1319 0002644 103.0535 257.0956 14.34217008433002
IRIDIUM 135             
1 43070U 17083A   26015.56781407  .00000133  00000+0  40587-4 0  9999
2 43070  86.3952  25.7947 0002146  89.9001 270.2440 14.34217251422279
IRIDIUM 138             
1 43071U 17083B   26015.52341514 -.00000017  00000+0 -13055-4 0  9990
2 43071  86.3961  25.4852 0002090 101.3442 258.7989 14.34217691422253
